[
  {
    "name": "ONEWEB-0473",
    "noradId": "51653",
    "line1": "1 51653U 22012AH  26192.61234957  .00000562  00000+0  15725-2 0  9998",
    "line2": "2 51653  87.8815  31.4094 0001871  86.4654 273.6688 13.10375723212502"
  },
  {
    "name": "ONEWEB-0474",
    "noradId": "51654",
    "line1": "1 51654U 22012AJ  26192.60385030  .00000194  00000+0  52005-3 0  9991",
    "line2": "2 51654  87.8828  31.3969 0001524  91.4225 268.7077 13.10376759212497"
  },
  {
    "name": "ONEWEB-0475",
    "noradId": "51655",
    "line1": "1 51655U 22012AK  26192.52191433 -.00000080  00000+0 -24043-3 0  9992",
    "line2": "2 51655  87.9149   1.0318 0001192 106.5670 253.5592 13.17647665216896"
  },
  {
    "name": "ONEWEB-0490",
    "noradId": "54113",
    "line1": "1 54113U 22138A   26192.77504204  .00000019  00000+0  14408-4 0  9999",
    "line2": "2 54113  87.9192 300.0716 0002065 105.4782 254.6579 13.19726352180072"
  },
  {
    "name": "ONEWEB-0492",
    "noradId": "54114",
    "line1": "1 54114U 22138B   26192.72448330 -.00000014  00000+0 -66893-4 0  9994",
    "line2": "2 54114  87.9187 300.0818 0002256 104.3392 255.7991 13.19726829180076"
  },
  {
    "name": "ONEWEB-0495",
    "noradId": "54115",
    "line1": "1 54115U 22138C   26192.77820225  .00000028  00000+0  38262-4 0  9999",
    "line2": "2 54115  87.9186 300.0735 0002135 119.0489 241.0858 13.19726280180060"
  },
  {
    "name": "ONEWEB-0497",
    "noradId": "54116",
    "line1": "1 54116U 22138D   26192.79083977  .00000032  00000+0  48721-4 0  9993",
    "line2": "2 54116  87.9192 300.0646 0002073 102.8671 257.2693 13.19726022180052"
  },
  {
    "name": "ONEWEB-0499",
    "noradId": "54117",
    "line1": "1 54117U 22138E   26192.77424409  .00000043  00000+0  74018-4 0  9991",
    "line2": "2 54117  87.9185 300.0752 0001930 106.5788 253.5557 13.19724313180064"
  },
  {
    "name": "ONEWEB-0500",
    "noradId": "54118",
    "line1": "1 54118U 22138F   26192.77662789  .00000028  00000+0  38772-4 0  9997",
    "line2": "2 54118  87.9192 300.0709 0002106  99.2578 260.8793 13.19725857180074"
  },
  {
    "name": "ONEWEB-0501",
    "noradId": "54119",
    "line1": "1 54119U 22138G   26192.73082629 -.00000078  00000+0 -22828-3 0  9994",
    "line2": "2 54119  87.9194 300.0791 0002035 113.0714 247.0634 13.19724973180042"
  },
  {
    "name": "ONEWEB-0502",
    "noradId": "54120",
    "line1": "1 54120U 22138H   26192.79242105  .00000007  00000+0 -13942-4 0  9998",
    "line2": "2 54120  87.9194 300.0564 0001887 105.8746 254.2595 13.19725347180075"
  },
  {
    "name": "ONEWEB-0503",
    "noradId": "54121",
    "line1": "1 54121U 22138J   26192.78136128 -.00000021  00000+0 -85965-4 0  9996",
    "line2": "2 54121  87.9196 300.0650 0001807  96.9142 263.2197 13.19725815180063"
  },
  {
    "name": "ONEWEB-0504",
    "noradId": "54122",
    "line1": "1 54122U 22138K   26192.76872547 -.00000052  00000+0 -16124-3 0  9991",
    "line2": "2 54122  87.9193 300.0721 0001889 106.5599 253.5742 13.19726017180078"
  },
  {
    "name": "ONEWEB-0505",
    "noradId": "54123",
    "line1": "1 54123U 22138L   26192.76554677 -.00000013  00000+0 -64999-4 0  9994",
    "line2": "2 54123  87.9192 300.0732 0001902 113.6637 246.4696 13.19727448180054"
  },
  {
    "name": "ONEWEB-0506",
    "noradId": "54124",
    "line1": "1 54124U 22138M   26192.74030267 -.00000005  00000+0 -45686-4 0  9990",
    "line2": "2 54124  87.9193 300.0761 0001976 109.7025 250.4322 13.19725177180043"
  },
  {
    "name": "ONEWEB-0507",
    "noradId": "54125",
    "line1": "1 54125U 22138N   26192.76082369  .00000024  00000+0  26425-4 0  9992",
    "line2": "2 54125  87.9186 300.0820 0002019 105.9623 254.1732 13.19726881180097"
  },
  {
    "name": "ONEWEB-0508",
    "noradId": "54126",
    "line1": "1 54126U 22138P   26192.75766959  .00000045  00000+0  80808-4 0  9994",
    "line2": "2 54126  87.9186 300.0817 0002185 111.5105 248.6261 13.19726328180075"
  },
  {
    "name": "ONEWEB-0509",
    "noradId": "54127",
    "line1": "1 54127U 22138Q   26192.73238567  .00000017  00000+0  10844-4 0  9994",
    "line2": "2 54127  87.9196 300.0792 0002009 103.5057 256.6299 13.19724196180049"
  },
  {
    "name": "ONEWEB-0510",
    "noradId": "54128",
    "line1": "1 54128U 22138R   26192.75295978  .00000049  00000+0  88326-4 0  9991",
    "line2": "2 54128  87.9184 269.5409 0002039  85.4324 274.7042 13.20770293182522"
  },
  {
    "name": "ONEWEB-0511",
    "noradId": "54129",
    "line1": "1 54129U 22138S   26192.72921709 -.00000262  00000+0 -68689-3 0  9995",
    "line2": "2 54129  87.9190 300.0814 0001729 101.7857 258.3470 13.19724474180078"
  },
  {
    "name": "ONEWEB-0512",
    "noradId": "54130",
    "line1": "1 54130U 22138T   26192.72133021 -.00000129  00000+0 -35520-3 0  9999",
    "line2": "2 54130  87.9184 300.0865 0001830 108.8738 251.2594 13.19725114180046"
  },
  {
    "name": "ONEWEB-0513",
    "noradId": "54131",
    "line1": "1 54131U 22138U   26192.79264222  .00000018  00000+0  11562-4 0  9991",
    "line2": "2 54131  87.9191 300.0133 0001442 124.8081 235.3188 13.20269316179961"
  },
  {
    "name": "ONEWEB-0514",
    "noradId": "54132",
    "line1": "1 54132U 22138V   26192.73712993 -.00000044  00000+0 -14207-3 0  9998",
    "line2": "2 54132  87.9192 300.0794 0001993  95.6008 264.5352 13.19725773180063"
  },
  {
    "name": "ONEWEB-0515",
    "noradId": "54133",
    "line1": "1 54133U 22138W   26192.73951415 -.00000114  00000+0 -31199-3 0  9990",
    "line2": "2 54133  87.9192 269.5394 0002878  89.0696 271.0767 13.20771018182545"
  },
  {
    "name": "ONEWEB-0516",
    "noradId": "54134",
    "line1": "1 54134U 22138X   26192.78766276 -.00000135  00000+0 -36963-3 0  9992",
    "line2": "2 54134  87.9185 300.0730 0002123 102.6728 257.4643 13.19724970180074"
  },
  {
    "name": "ONEWEB-0517",
    "noradId": "54135",
    "line1": "1 54135U 22138Y   26192.76714456 -.00000072  00000+0 -21178-3 0  9996",
    "line2": "2 54135  87.9192 300.0718 0001689  93.5159 266.6167 13.19726292180073"
  },
  {
    "name": "ONEWEB-0518",
    "noradId": "54136",
    "line1": "1 54136U 22138Z   26192.78608962  .00000025  00000+0  31103-4 0  9999",
    "line2": "2 54136  87.9186 300.0756 0002209 101.3704 258.7677 13.19723719180071"
  },
  {
    "name": "ONEWEB-0519",
    "noradId": "54137",
    "line1": "1 54137U 22138AA  26192.73553338 -.00000151  00000+0 -40995-3 0  9991",
    "line2": "2 54137  87.9191 300.0792 0001829  96.4695 263.6646 13.19725959180077"
  },
  {
    "name": "ONEWEB-0520",
    "noradId": "54138",
    "line1": "1 54138U 22138AB  26192.77030458 -.00000038  00000+0 -12728-3 0  9996",
    "line2": "2 54138  87.9194 300.0722 0002038 108.0617 252.0738 13.19726116180060"
  },
  {
    "name": "ONEWEB-0521",
    "noradId": "54139",
    "line1": "1 54139U 22138AC  26192.72764352 -.00000043  00000+0 -14039-3 0  9992",
    "line2": "2 54139  87.9194 300.0696 0001869  95.3848 264.7498 13.19726149180009"
  }
]