OBJECT_NAME,OBJECT_ID,EPOCH,MEAN_MOTION,ECCENTRICITY,INCLINATION,RA_OF_ASC_NODE,ARG_OF_PERICENTER,MEAN_ANOMALY,EPHEMERIS_TYPE,CLASSIFICATION_TYPE,NORAD_CAT_ID,ELEMENT_SET_NO,REV_AT_EPOCH,BSTAR,MEAN_MOTION_DOT,MEAN_MOTION_DDOT
ONEWEB-0473,2022-012AH,2026-07-11T14:41:47.002848,13.10375723,.00018714,87.8815,31.4094,86.4654,273.6688,0,U,51653,999,21250,.15725142E-2,.562E-5,0
ONEWEB-0474,2022-012AJ,2026-07-11T14:29:32.665920,13.10376759,.00015244,87.8828,31.3969,91.4225,268.7077,0,U,51654,999,21249,.52004966E-3,.194E-5,0
ONEWEB-0475,2022-012AK,2026-07-11T12:31:33.398112,13.17647665,.00011922,87.9149,1.0318,106.5670,253.5592,0,U,51655,999,21689,-.24042995E-3,-.8E-6,0
ONEWEB-0490,2022-138A,2026-07-11T18:36:03.632256,13.19726352,.00020652,87.9192,300.0716,105.4782,254.6579,0,U,54113,999,18007,.14407597E-4,.19E-6,0
ONEWEB-0492,2022-138B,2026-07-11T17:23:15.357120,13.19726829,.00022569,87.9187,300.0818,104.3392,255.7991,0,U,54114,999,18007,-.66892747E-4,-.14E-6,0
ONEWEB-0495,2022-138C,2026-07-11T18:40:36.674400,13.19726280,.00021356,87.9186,300.0735,119.0489,241.0858,0,U,54115,999,18006,.38261573E-4,.28E-6,0
ONEWEB-0497,2022-138D,2026-07-11T18:58:48.556128,13.19726022,.00020732,87.9192,300.0646,102.8671,257.2693,0,U,54116,999,18005,.48720568E-4,.32E-6,0
ONEWEB-0499,2022-138E,2026-07-11T18:34:54.689376,13.19724313,.00019301,87.9185,300.0752,106.5788,253.5557,0,U,54117,999,18006,.740176E-4,.43E-6,0
ONEWEB-0500,2022-138F,2026-07-11T18:38:20.649696,13.19725857,.00021069,87.9192,300.0709,99.2578,260.8793,0,U,54118,999,18007,.38771951E-4,.28E-6,0
ONEWEB-0501,2022-138G,2026-07-11T17:32:23.391456,13.19724973,.00020355,87.9194,300.0791,113.0714,247.0634,0,U,54119,999,18004,-.22827868E-3,-.78E-6,0
ONEWEB-0502,2022-138H,2026-07-11T19:01:05.178720,13.19725347,.00018871,87.9194,300.0564,105.8746,254.2595,0,U,54120,999,18007,-.13941976E-4,.7E-7,0
ONEWEB-0503,2022-138J,2026-07-11T18:45:09.614592,13.19725815,.00018079,87.9196,300.0650,96.9142,263.2197,0,U,54121,999,18006,-.8596547E-4,-.21E-6,0
ONEWEB-0504,2022-138K,2026-07-11T18:26:57.880608,13.19726017,.0001889,87.9193,300.0721,106.5599,253.5742,0,U,54122,999,18007,-.16123758E-3,-.52E-6,0
ONEWEB-0505,2022-138L,2026-07-11T18:22:23.240928,13.19727448,.0001902,87.9192,300.0732,113.6637,246.4696,0,U,54123,999,18005,-.64999433E-4,-.13E-6,0
ONEWEB-0506,2022-138M,2026-07-11T17:46:02.150688,13.19725177,.0001976,87.9193,300.0761,109.7025,250.4322,0,U,54124,999,18004,-.45685657E-4,-.5E-7,0
ONEWEB-0507,2022-138N,2026-07-11T18:15:35.166816,13.19726881,.00020194,87.9186,300.0820,105.9623,254.1732,0,U,54125,999,18009,.26425144E-4,.24E-6,0
ONEWEB-0508,2022-138P,2026-07-11T18:11:02.652576,13.19726328,.0002185,87.9186,300.0817,111.5105,248.6261,0,U,54126,999,18007,.808078E-4,.45E-6,0
ONEWEB-0509,2022-138Q,2026-07-11T17:34:38.121888,13.19724196,.00020091,87.9196,300.0792,103.5057,256.6299,0,U,54127,999,18004,.1084377E-4,.17E-6,0
ONEWEB-0510,2022-138R,2026-07-11T18:04:15.724992,13.20770293,.00020394,87.9184,269.5409,85.4324,274.7042,0,U,54128,999,18252,.88326213E-4,.49E-6,0
ONEWEB-0511,2022-138S,2026-07-11T17:30:04.356576,13.19724474,.00017299,87.9190,300.0814,101.7857,258.3470,0,U,54129,999,18007,-.68688796E-3,-.262E-5,0
ONEWEB-0512,2022-138T,2026-07-11T17:18:42.930144,13.19725114,.000183,87.9184,300.0865,108.8738,251.2594,0,U,54130,999,18004,-.35519944E-3,-.129E-5,0
ONEWEB-0513,2022-138U,2026-07-11T19:01:24.287808,13.20269316,.00014425,87.9191,300.0133,124.8081,235.3188,0,U,54131,999,17996,.11561525E-4,.18E-6,0
ONEWEB-0514,2022-138V,2026-07-11T17:41:28.025952,13.19725773,.00019933,87.9192,300.0794,95.6008,264.5352,0,U,54132,999,18006,-.14206576E-3,-.44E-6,0
ONEWEB-0515,2022-138W,2026-07-11T17:44:54.022560,13.20771018,.00028788,87.9192,269.5394,89.0696,271.0767,0,U,54133,999,18254,-.31199091E-3,-.114E-5,0
ONEWEB-0516,2022-138X,2026-07-11T18:54:14.062464,13.19724970,.00021236,87.9185,300.0730,102.6728,257.4643,0,U,54134,999,18007,-.36963186E-3,-.135E-5,0
ONEWEB-0517,2022-138Y,2026-07-11T18:24:41.289984,13.19726292,.00016897,87.9192,300.0718,93.5159,266.6167,0,U,54135,999,18007,-.21178159E-3,-.72E-6,0
ONEWEB-0518,2022-138Z,2026-07-11T18:51:58.143168,13.19723719,.00022094,87.9186,300.0756,101.3704,258.7677,0,U,54136,999,18007,.31102834E-4,.25E-6,0
ONEWEB-0519,2022-138AA,2026-07-11T17:39:10.084032,13.19725959,.00018299,87.9191,300.0792,96.4695,263.6646,0,U,54137,999,18007,-.40994766E-3,-.151E-5,0
ONEWEB-0520,2022-138AB,2026-07-11T18:29:14.315712,13.19726116,.00020382,87.9194,300.0722,108.0617,252.0738,0,U,54138,999,18006,-.1272778E-3,-.38E-6,0
ONEWEB-0521,2022-138AC,2026-07-11T17:27:48.400128,13.19726149,.00018699,87.9194,300.0696,95.3848,264.7498,0,U,54139,999,18000,-.14038798E-3,-.43E-6,0
